{"type": "FeatureCollection", "features": [ {"type": "Feature", "properties": {"norad_id": 31026, "name": "FENGYUN 1C DEB", "group": "fengyun-1c-debris", "lat": 25.084353448980526, "lon": 101.46066429779191, "alt_km": 878.0521816047385, "timestamp": "2025-12-07T09:35:10.070479+00:00", "meta": {"OBJECT_NAME": "FENGYUN 1C DEB", "OBJECT_ID": "1999-025BDU", "EPOCH": "2025-12-05T14:20:13.197408", "MEAN_MOTION": 13.83394717, "ECCENTRICITY": 0.01339877, "INCLINATION": 98.7779, "RA_OF_ASC_NODE": 275.631, "ARG_OF_PERICENTER": 201.9147, "MEAN_ANOMALY": 343.8913, "EPHEMERIS_TYPE": 0, "CLASSIFICATION_TYPE": "U", "NORAD_CAT_ID": 31026, "ELEMENT_SET_NO": 999, "REV_AT_EPOCH": 67927, "BSTAR": 0.00026735766, "MEAN_MOTION_DOT": 2.75e-06, "MEAN_MOTION_DDOT": 0}, "tle": {"line1": "1 31026U 99025BDU 25339.59737497  .00000275  00000+0  26736-3 0  9990", "line2": "2 31026  98.7779 275.6310 0133987 201.9147 343.8913 13.83394717679278"}}, "geometry": {"type": "Point", "coordinates": [101.46066429779191, 25.084353448980526]}}, {"type": "Feature", "properties": {"norad_id": 31028, "name": "FENGYUN 1C DEB", "group": "fengyun-1c-debris", "lat": 55.85202068300411, "lon": -99.45655430126162, "alt_km": 961.6930651794719, "timestamp": "2025-12-07T09:35:10.070490+00:00", "meta": {"OBJECT_NAME": "FENGYUN 1C DEB", "OBJECT_ID": "1999-025BDW", "EPOCH": "2025-11-26T01:54:24.970752", "MEAN_MOTION": 13.89048666, "ECCENTRICITY": 0.01654825, "INCLINATION": 98.7043, "RA_OF_ASC_NODE": 263.016, "ARG_OF_PERICENTER": 340.0889, "MEAN_ANOMALY": 19.3862, "EPHEMERIS_TYPE": 0, "CLASSIFICATION_TYPE": "U", "NORAD_CAT_ID": 31028, "ELEMENT_SET_NO": 999, "REV_AT_EPOCH": 61772, "BSTAR": 0.00043609826, "MEAN_MOTION_DOT": 5.49e-06, "MEAN_MOTION_DDOT": 0}, "tle": {"line1": "1 31028U 99025BDW 25330.07945568  .00000549  00000+0  43610-3 0  9990", "line2": "2 31028  98.7043 263.0160 0165482 340.0889  19.3862 13.89048666617726"}}, "geometry": {"type": "Point", "coordinates": [-99.45655430126162, 55.85202068300411]}}, {"type": "Feature", "properties": {"norad_id": 31029, "name": "FENGYUN 1C DEB", "group": "fengyun-1c-debris", "lat": -8.07613281418619, "lon": 56.89864311400977, "alt_km": 790.5142120647979, "timestamp": "2025-12-07T09:35:10.070500+00:00", "meta": {"OBJECT_NAME": "FENGYUN 1C DEB", "OBJECT_ID": "1999-025BDX", "EPOCH": "2025-12-06T11:46:58.207872", "MEAN_MOTION": 14.34304915, "ECCENTRICITY": 0.00900477, "INCLINATION": 98.8586, "RA_OF_ASC_NODE": 237.2359, "ARG_OF_PERICENTER": 91.979, "MEAN_ANOMALY": 86.8318, "EPHEMERIS_TYPE": 0, "CLASSIFICATION_TYPE": "U", "NORAD_CAT_ID": 31029, "ELEMENT_SET_NO": 999, "REV_AT_EPOCH": 97706, "BSTAR": 0.00059757557, "MEAN_MOTION_DOT": 1.711e-05, "MEAN_MOTION_DDOT": 0}, "tle": {"line1": "1 31029U 99025BDX 25340.49095148  .00001711  00000+0  59758-3 0  9990", "line2": "2 31029  98.8586 237.2359 0090047  91.9790  86.8318 14.34304915977064"}}, "geometry": {"type": "Point", "coordinates": [56.89864311400977, -8.07613281418619]}}, {"type": "Feature", "properties": {"norad_id": 31030, "name": "FENGYUN 1C DEB", "group": "fengyun-1c-debris", "lat": -33.02697865598544, "lon": -142.41760614213624, "alt_km": 827.3701162304442, "timestamp": "2025-12-07T09:35:10.070510+00:00", "meta": {"OBJECT_NAME": "FENGYUN 1C DEB", "OBJECT_ID": "1999-025BDY", "EPOCH": "2025-12-06T10:44:14.966016", "MEAN_MOTION": 14.2363526, "ECCENTRICITY": 0.00281759, "INCLINATION": 98.7674, "RA_OF_ASC_NODE": 42.3915, "ARG_OF_PERICENTER": 102.027, "MEAN_ANOMALY": 274.5643, "EPHEMERIS_TYPE": 0, "CLASSIFICATION_TYPE": "U", "NORAD_CAT_ID": 31030, "ELEMENT_SET_NO": 999, "REV_AT_EPOCH": 96615, "BSTAR": 0.0018112752, "MEAN_MOTION_DOT": 4.104e-05, "MEAN_MOTION_DDOT": 0}, "tle": {"line1": "1 31030U 99025BDY 25340.44739544  .00004104  00000+0  18113-2 0  9990", "line2": "2 31030  98.7674  42.3915 0028175 102.0270 274.5643 14.23635260966159"}}, "geometry": {"type": "Point", "coordinates": [-142.41760614213624, -33.02697865598544]}}, {"type": "Feature", "properties": {"norad_id": 31031, "name": "FENGYUN 1C DEB", "group": "fengyun-1c-debris", "lat": -80.54626513824633, "lon": 4.733878215136554, "alt_km": 820.9876391430971, "timestamp": "2025-12-07T09:35:10.070521+00:00", "meta": {"OBJECT_NAME": "FENGYUN 1C DEB", "OBJECT_ID": "1999-025BDZ", "EPOCH": "2025-12-06T17:15:45.296928", "MEAN_MOTION": 14.20967849, "ECCENTRICITY": 0.0027503, "INCLINATION": 99.0712, "RA_OF_ASC_NODE": 257.6633, "ARG_OF_PERICENTER": 204.2383, "MEAN_ANOMALY": 185.4692, "EPHEMERIS_TYPE": 0, "CLASSIFICATION_TYPE": "U", "NORAD_CAT_ID": 31031, "ELEMENT_SET_NO": 999, "REV_AT_EPOCH": 96769, "BSTAR": 0.00074154334, "MEAN_MOTION_DOT": 1.566e-05, "MEAN_MOTION_DDOT": 0}, "tle": {"line1": "1 31031U 99025BDZ 25340.71927427  .00001566  00000+0  74154-3 0  9997", "line2": "2 31031  99.0712 257.6633 0027503 204.2383 185.4692 14.20967849967691"}}, "geometry": {"type": "Point", "coordinates": [4.733878215136554, -80.54626513824633]}}, {"type": "Feature", "properties": {"norad_id": 31032, "name": "FENGYUN 1C DEB", "group": "fengyun-1c-debris", "lat": -69.06723674011752, "lon": 15.720459016478632, "alt_km": 871.6632958810733, "timestamp": "2025-12-07T09:35:10.070531+00:00", "meta": {"OBJECT_NAME": "FENGYUN 1C DEB", "OBJECT_ID": "1999-025BEA", "EPOCH": "2025-12-05T23:48:45.535680", "MEAN_MOTION": 14.02158788, "ECCENTRICITY": 0.01387587, "INCLINATION": 99.3999, "RA_OF_ASC_NODE": 348.6082, "ARG_OF_PERICENTER": 214.4192, "MEAN_ANOMALY": 173.3161, "EPHEMERIS_TYPE": 0, "CLASSIFICATION_TYPE": "U", "NORAD_CAT_ID": 31032, "ELEMENT_SET_NO": 999, "REV_AT_EPOCH": 94887, "BSTAR": 0.0020928879, "MEAN_MOTION_DOT": 3.436e-05, "MEAN_MOTION_DDOT": 0}, "tle": {"line1": "1 31032U 99025BEA 25339.99219370  .00003436  00000+0  20929-2 0  9995", "line2": "2 31032  99.3999 348.6082 0138758 214.4192 173.3161 14.02158788948877"}}, "geometry": {"type": "Point", "coordinates": [15.720459016478632, -69.06723674011752]}}, {"type": "Feature", "properties": {"norad_id": 31033, "name": "FENGYUN 1C DEB", "group": "fengyun-1c-debris", "lat": -37.52531247185855, "lon": 133.36245916893523, "alt_km": 808.5306704296027, "timestamp": "2025-12-07T09:35:10.070542+00:00", "meta": {"OBJECT_NAME": "FENGYUN 1C DEB", "OBJECT_ID": "1999-025BEB", "EPOCH": "2025-12-06T04:16:15.078720", "MEAN_MOTION": 14.27441573, "ECCENTRICITY": 0.01539162, "INCLINATION": 98.4377, "RA_OF_ASC_NODE": 318.729, "ARG_OF_PERICENTER": 129.6399, "MEAN_ANOMALY": 293.2173, "EPHEMERIS_TYPE": 0, "CLASSIFICATION_TYPE": "U", "NORAD_CAT_ID": 31033, "ELEMENT_SET_NO": 999, "REV_AT_EPOCH": 97252, "BSTAR": 0.00028349807, "MEAN_MOTION_DOT": 7.46e-06, "MEAN_MOTION_DDOT": 0}, "tle": {"line1": "1 31033U 99025BEB 25340.17795230  .00000746  00000+0  28350-3 0  9990", "line2": "2 31033  98.4377 318.7290 0153916 129.6399 293.2173 14.27441573972524"}}, "geometry": {"type": "Point", "coordinates": [133.36245916893523, -37.52531247185855]}}, {"type": "Feature", "properties": {"norad_id": 31036, "name": "FENGYUN 1C DEB", "group": "fengyun-1c-debris", "lat": -28.19565596570484, "lon": 92.38579606854591, "alt_km": 671.8556850902778, "timestamp": "2025-12-07T09:35:10.070552+00:00", "meta": {"OBJECT_NAME": "FENGYUN 1C DEB", "OBJECT_ID": "1999-025BEE", "EPOCH": "2025-12-06T13:53:15.239040", "MEAN_MOTION": 14.49054035, "ECCENTRICITY": 0.0137609, "INCLINATION": 98.9155, "RA_OF_ASC_NODE": 86.6915, "ARG_OF_PERICENTER": 283.2359, "MEAN_ANOMALY": 87.9061, "EPHEMERIS_TYPE": 0, "CLASSIFICATION_TYPE": "U", "NORAD_CAT_ID": 31036, "ELEMENT_SET_NO": 999, "REV_AT_EPOCH": 57218, "BSTAR": 0.00040636312, "MEAN_MOTION_DOT": 1.682e-05, "MEAN_MOTION_DDOT": 0}, "tle": {"line1": "1 31036U 99025BEE 25340.57864860  .00001682  00000+0  40636-3 0  9994", "line2": "2 31036  98.9155  86.6915 0137609 283.2359  87.9061 14.49054035572184"}}, "geometry": {"type": "Point", "coordinates": [92.38579606854591, -28.19565596570484]}}, {"type": "Feature", "properties": {"norad_id": 31038, "name": "FENGYUN 1C DEB", "group": "fengyun-1c-debris", "lat": -10.8410926490525, "lon": -116.65652555004283, "alt_km": 707.9064565533063, "timestamp": "2025-12-07T09:35:10.070564+00:00", "meta": {"OBJECT_NAME": "FENGYUN 1C DEB", "OBJECT_ID": "1999-025BEG", "EPOCH": "2025-12-06T04:27:44.339904", "MEAN_MOTION": 14.45780215, "ECCENTRICITY": 0.00839353, "INCLINATION": 99.0149, "RA_OF_ASC_NODE": 63.7969, "ARG_OF_PERICENTER": 248.09, "MEAN_ANOMALY": 111.1351, "EPHEMERIS_TYPE": 0, "CLASSIFICATION_TYPE": "U", "NORAD_CAT_ID": 31038, "ELEMENT_SET_NO": 999, "REV_AT_EPOCH": 98140, "BSTAR": 0.0011608198, "MEAN_MOTION_DOT": 4.248e-05, "MEAN_MOTION_DDOT": 0}, "tle": {"line1": "1 31038U 99025BEG 25340.18592986  .00004248  00000+0  11608-2 0  9997", "line2": "2 31038  99.0149  63.7969 0083935 248.0900 111.1351 14.45780215981402"}}, "geometry": {"type": "Point", "coordinates": [-116.65652555004283, -10.8410926490525]}}, {"type": "Feature", "properties": {"norad_id": 31040, "name": "FENGYUN 1C DEB", "group": "fengyun-1c-debris", "lat": 28.327468432008228, "lon": -33.32801983743951, "alt_km": 876.6399026873032, "timestamp": "2025-12-07T09:35:10.070575+00:00", "meta": {"OBJECT_NAME": "FENGYUN 1C DEB", "OBJECT_ID": "1999-025BEJ", "EPOCH": "2025-12-06T10:28:17.608224", "MEAN_MOTION": 14.17659618, "ECCENTRICITY": 0.00619694, "INCLINATION": 98.6577, "RA_OF_ASC_NODE": 330.4446, "ARG_OF_PERICENTER": 212.3611, "MEAN_ANOMALY": 303.8857, "EPHEMERIS_TYPE": 0, "CLASSIFICATION_TYPE": "U", "NORAD_CAT_ID": 31040, "ELEMENT_SET_NO": 999, "REV_AT_EPOCH": 96617, "BSTAR": 0.00054471851, "MEAN_MOTION_DOT": 1.086e-05, "MEAN_MOTION_DDOT": 0}, "tle": {"line1": "1 31040U 99025BEJ 25340.43631491  .00001086  00000+0  54472-3 0  9997", "line2": "2 31040  98.6577 330.4446 0061969 212.3611 303.8857 14.17659618966174"}}, "geometry": {"type": "Point", "coordinates": [-33.32801983743951, 28.327468432008228]}}]}